{
"type": "FeatureCollection",
"name": "parcels",
"crs": { "type": "name", "properties": { "name": "urn:ogc:def:crs:OGC:1.3:CRS84" } },
"features": [
{ "type": "Feature", "properties": { "cell_id": 0, "area_m2": 71503.790135020696, "type" : "site" }, "geometry": { "type": "MultiPolygon", "coordinates": [ [ [ [ 123.053054923157717, 10.871663432724938, 0.0 ], [ 123.052905381983109, 10.871677899181378, 0.0 ], [ 123.052639866850214, 10.872001393065672, 0.0 ], [ 123.052156808997395, 10.872073314516172, 0.0 ], [ 123.051965946162795, 10.872325509672619, 0.0 ], [ 123.052032927753018, 10.872650409094492, 0.0 ], [ 123.051502984136505, 10.87308458736045, 0.0 ], [ 123.050162437951442, 10.873781337627452, 0.0 ], [ 123.050600208702306, 10.874414443582921, 0.0 ], [ 123.053055123297838, 10.872796070248771, 0.0 ], [ 123.053054923157717, 10.871663432724938, 0.0 ] ] ], [ [ [ 123.053055142506309, 10.872904768664752, 0.0 ], [ 123.050656823090705, 10.874485832138348, 0.0 ], [ 123.05127919446511, 10.875192140756228, 0.0 ], [ 123.053055546709558, 10.8751918391419, 0.0 ], [ 123.053055142506309, 10.872904768664752, 0.0 ] ] ] ] } },
{ "type": "Feature", "properties": { "cell_id": 1, "area_m2": 106827.35416677904, "type" : "site" }, "geometry": { "type": "MultiPolygon", "coordinates": [ [ [ [ 123.056466882390694, 10.875191231116879, 0.0 ], [ 123.056466685439304, 10.874144224197664, 0.0 ], [ 123.056215229630098, 10.874030256199688, 0.0 ], [ 123.055848435236797, 10.87341163732912, 0.0 ], [ 123.055627469189417, 10.873193876656648, 0.0 ], [ 123.055368024475399, 10.873121334679849, 0.0 ], [ 123.055372107666997, 10.872759293503268, 0.0 ], [ 123.0554495542398, 10.872470277903828, 0.0 ], [ 123.055075524293116, 10.87272309844179, 0.0 ], [ 123.054814237555206, 10.872831563964086, 0.0 ], [ 123.054586917474779, 10.873157487072449, 0.0 ], [ 123.054218958865505, 10.872903862530231, 0.0 ], [ 123.054336216763502, 10.872506235387901, 0.0 ], [ 123.054488694395715, 10.87221770088202, 0.0 ], [ 123.054790899923987, 10.871785916386679, 0.0 ], [ 123.054779032510297, 10.871768292841042, 0.0 ], [ 123.053055142506309, 10.872904768664752, 0.0 ], [ 123.053055546709558, 10.8751918391419, 0.0 ], [ 123.056466882390694, 10.875191231116879, 0.0 ] ] ], [ [ [ 123.054573326501384, 10.871462811448461, 0.0 ], [ 123.054312928589098, 10.871570394814709, 0.0 ], [ 123.053941351847499, 10.871678038037439, 0.0 ], [ 123.053609585508894, 10.871606190730651, 0.0 ], [ 123.053541179647695, 10.871283479425777, 0.0 ], [ 123.053276022116719, 10.871642043707631, 0.0 ], [ 123.053054923157717, 10.871663432724938, 0.0 ], [ 123.053055123297838, 10.872796070248771, 0.0 ], [ 123.054728334462681, 10.871693004347588, 0.0 ], [ 123.054573326501384, 10.871462811448461, 0.0 ] ] ] ] } },
{ "type": "Feature", "properties": { "cell_id": 2, "area_m2": 6286.8759100779589, "type" : "site" }, "geometry": { "type": "Polygon", "coordinates": [ [ [ 123.05708386869307, 10.875191117102545, 0.0 ], [ 123.056618734593698, 10.874944466035798, 0.0 ], [ 123.057069317090409, 10.874614802643201, 0.0 ], [ 123.057406328769403, 10.874431967412981, 0.0 ], [ 123.057146035817212, 10.874249276673368, 0.0 ], [ 123.056698353857186, 10.874249223642671, 0.0 ], [ 123.056466685439304, 10.874144224197664, 0.0 ], [ 123.056466882390694, 10.875191231116879, 0.0 ], [ 123.05708386869307, 10.875191117102545, 0.0 ] ] ] } },
{ "type": "Feature", "properties": { "cell_id": 3, "area_m2": 21643.839420406501, "type" : "site" }, "geometry": { "type": "Polygon", "coordinates": [ [ [ 123.05127919446511, 10.875192140756228, 0.0 ], [ 123.053055903187001, 10.877208443029796, 0.0 ], [ 123.053055546709558, 10.8751918391419, 0.0 ], [ 123.05127919446511, 10.875192140756228, 0.0 ] ] ] } },
{ "type": "Feature", "properties": { "cell_id": 4, "area_m2": 146863.94731371535, "type" : "site" }, "geometry": { "type": "MultiPolygon", "coordinates": [ [ [ [ 123.056466882390694, 10.875191231116879, 0.0 ], [ 123.053055546709558, 10.8751918391419, 0.0 ], [ 123.053055903187001, 10.877208443029796, 0.0 ], [ 123.053827882922491, 10.878084514367815, 0.0 ], [ 123.056466972462076, 10.875670021005416, 0.0 ], [ 123.056466882390694, 10.875191231116879, 0.0 ] ] ], [ [ [ 123.056466995642666, 10.875793237791951, 0.0 ], [ 123.053887658552853, 10.878153063561747, 0.0 ], [ 123.054890233340174, 10.879316376824979, 0.0 ], [ 123.054933686858973, 10.879366408159578, 0.0 ], [ 123.055095600853775, 10.879551958148744, 0.0 ], [ 123.05646770285216, 10.879551708937715, 0.0 ], [ 123.056466995642666, 10.875793237791951, 0.0 ] ] ] ] } },
{ "type": "Feature", "properties": { "cell_id": 5, "area_m2": 28577.558543691961, "type" : "site" }, "geometry": { "type": "MultiPolygon", "coordinates": [ [ [ [ 123.05646770285216, 10.879551708937715, 0.0 ], [ 123.057078817959052, 10.879551595969479, 0.0 ], [ 123.057081327652597, 10.879106862772042, 0.0 ], [ 123.05708577905601, 10.878317974571502, 0.0 ], [ 123.057165005409203, 10.877644924767671, 0.0 ], [ 123.057129965043018, 10.877160608986829, 0.0 ], [ 123.056907503281806, 10.876603613256282, 0.0 ], [ 123.056759385242515, 10.876270361814138, 0.0 ], [ 123.056874852763002, 10.875827164181459, 0.0 ], [ 123.05688689737886, 10.875684734590264, 0.0 ], [ 123.056884447345524, 10.875683965894936, 0.0 ], [ 123.056575567685442, 10.875693904346988, 0.0 ], [ 123.056466995642666, 10.875793237791951, 0.0 ], [ 123.05646770285216, 10.879551708937715, 0.0 ] ] ], [ [ [ 123.056466972462076, 10.875670021005416, 0.0 ], [ 123.056538467729808, 10.875604609388159, 0.0 ], [ 123.056894642328729, 10.875593149195971, 0.0 ], [ 123.056915336421795, 10.875348437637198, 0.0 ], [ 123.057103359383319, 10.87520145259121, 0.0 ], [ 123.05708386869307, 10.875191117102545, 0.0 ], [ 123.056466882390694, 10.875191231116879, 0.0 ], [ 123.056466972462076, 10.875670021005416, 0.0 ] ] ] ] } },
{ "type": "Feature", "properties": { "cell_id": 7, "area_m2": 10557.620870201567, "type" : "site" }, "geometry": { "type": "Polygon", "coordinates": [ [ [ 123.055095600853775, 10.879551958148744, 0.0 ], [ 123.055147122441412, 10.879611000723994, 0.0 ], [ 123.055401572080456, 10.879865746077305, 0.0 ], [ 123.056467934958675, 10.880784940846269, 0.0 ], [ 123.05646770285216, 10.879551708937715, 0.0 ], [ 123.055095600853775, 10.879551958148744, 0.0 ] ] ] } },
{ "type": "Feature", "properties": { "cell_id": 8, "area_m2": 46613.943618569858, "type" : "site" }, "geometry": { "type": "Polygon", "coordinates": [ [ [ 123.056467934958675, 10.880784940846269, 0.0 ], [ 123.058047482386826, 10.882146478559511, 0.0 ], [ 123.058136412107658, 10.882249500364045, 0.0 ], [ 123.058197749842023, 10.882334969211552, 0.0 ], [ 123.058271367323755, 10.882457837783194, 0.0 ], [ 123.058726369590048, 10.883328714803403, 0.0 ], [ 123.059382184663235, 10.881729402530619, 0.0 ], [ 123.058976738889598, 10.881612386397521, 0.0 ], [ 123.058785892833313, 10.881153899299338, 0.0 ], [ 123.058176129989519, 10.880963193049672, 0.0 ], [ 123.057643717730102, 10.880658588461296, 0.0 ], [ 123.057302526092897, 10.88035458956749, 0.0 ], [ 123.0572660159809, 10.880051207100269, 0.0 ], [ 123.05696312448822, 10.879861856358099, 0.0 ], [ 123.057078773729799, 10.879559433659091, 0.0 ], [ 123.057078817959052, 10.879551595969479, 0.0 ], [ 123.05646770285216, 10.879551708937715, 0.0 ], [ 123.056467934958675, 10.880784940846269, 0.0 ] ] ] } }
]
}
